GOSAT (IBUKI)           
1 33492U 09002A   26185.86571893  .00000182  00000+0  40518-4 0  9993
2 33492  98.0908 296.7269 0001143  80.0109 280.1224 14.67539504934059
HAIYANG-2A              
1 37781U 11043A   26186.60573439  .00000109  00000+0  16287-3 0  9991
2 37781  99.3397 188.8657 0004156  55.8659 304.2884 13.73781198749181
GOKTURK 2               
1 39030U 12073A   26186.59363712  .00000921  00000+0  14214-3 0  9993
2 39030  97.6811  23.1014 0000956  70.2083 289.9230 14.75563366727229
GPM-CORE                
1 39574U 14009C   26186.33664645  .00014766  00000+0  31581-3 0  9996
2 39574  64.9704 247.3265 0011192 258.7739 101.2144 15.44964522700613
GOKTURK 1A              
1 41875U 16073A   26186.64633346  .00000346  00000+0  76989-4 0  9995
2 41875  98.1224  81.0294 0001374  79.6332 280.5024 14.62788188511520
GOES 17                 
1 43226U 18022A   26186.48768091 -.00000169  00000+0  00000+0 0  9991
2 43226   0.9807  85.4269 0000699  58.1013 226.0203  1.00270863 30600
GOES 18                 
1 51850U 22021A   26186.51850380  .00000110  00000+0  00000+0 0  9999
2 51850   0.0358 224.8795 0000573 296.6336 171.6564  1.00272074  6777
GOES 19                 
1 60133U 24119A   26186.56160507 -.00000235  00000+0  00000+0 0  9992
2 60133   0.0028  75.2601 0000413  90.4365 244.8406  1.00272630  7142
GOSAT-GW (IBUKI GW)     
1 64694U 25141A   26186.59914272  .00001224  00000+0  22422-3 0  9997
2 64694  98.0567 123.6171 0001415  83.6241 276.5125 14.67552418 54541
